[{"OBJECT_NAME":"TIANQI-15","OBJECT_ID":"2021-065B","EPOCH":"2026-03-09T19:28:45.472224","MEAN_MOTION":15.09508085,"ECCENTRICITY":0.00070671,"INCLINATION":34.9979,"RA_OF_ASC_NODE":108.242,"ARG_OF_PERICENTER":250.7766,"MEAN_ANOMALY":109.218,"EPHEMERIS_TYPE":0,"CLASSIFICATION_TYPE":"U","NORAD_CAT_ID":49027,"ELEMENT_SET_NO":999,"REV_AT_EPOCH":25424,"BSTAR":0.00041179088,"MEAN_MOTION_DOT":6.722e-5,"MEAN_MOTION_DDOT":0},{"OBJECT_NAME":"STARLINK-3333","OBJECT_ID":"2022-001C","EPOCH":"2026-03-09T22:48:18.143136","MEAN_MOTION":15.0885751,"ECCENTRICITY":0.00014366,"INCLINATION":53.2186,"RA_OF_ASC_NODE":157.9555,"ARG_OF_PERICENTER":99.8496,"MEAN_ANOMALY":260.2658,"EPHEMERIS_TYPE":0,"CLASSIFICATION_TYPE":"U","NORAD_CAT_ID":50805,"ELEMENT_SET_NO":999,"REV_AT_EPOCH":23058,"BSTAR":-0.00034958927,"MEAN_MOTION_DOT":-5.85e-5,"MEAN_MOTION_DDOT":0}]
